IRIDIUM 112             
1 41925U 17003J   23282.69979144  .00000536  00000+0  18445-3 0  9996
2 41925  86.3965 138.5309 0002349  88.0104 272.1360 14.34220385352595
IRIDIUM 111             
1 41926U 17003K   23282.68710990  .00000048  00000+0  10112-4 0  9990
2 41926  86.3968 138.5851 0002010  78.2820 281.8601 14.34216744352579
IRIDIUM 113             
1 42803U 17039A   23282.80660981  .00000702  00000+0  24341-3 0  9997
2 42803  86.4035  12.2643 0002236  90.5080 269.6372 14.34219146330521
IRIDIUM 123             
1 42804U 17039B   23282.84808057  .00000760  00000+0  26429-3 0  9993
2 42804  86.3992  43.7355 0002332  88.6792 271.4671 14.34223336329298
IRIDIUM 120             
1 42805U 17039C   23282.73049588  .00000535  00000+0  18410-3 0  9999
2 42805  86.4023  12.2059 0002120  91.9873 268.1565 14.34220614330506
IRIDIUM 115             
1 42806U 17039D   23282.81197050  .00000921  00000+0  26745-3 0  9996
2 42806  86.4561  12.1609 0002090  87.0329 273.1111 14.43340030332715
IRIDIUM 118             
1 42807U 17039E   23282.87979755  .00000788  00000+0  27437-3 0  9993
2 42807  86.3992  43.7245 0002117  93.5489 266.5949 14.34218579329294
IRIDIUM 117             
1 42808U 17039F   23282.82905758  .00000741  00000+0  25762-3 0  9999
2 42808  86.3990  43.7123 0002060  90.3807 269.7625 14.34221607329319
